satname,norad_id,inclination_deg,eccentricity,mean_motion_rev_per_day,perigee_km,apogee_km,l1,l2
STARLINK-1300,45374,53.054,0.0001381,15.06410772,546.2221574299056,548.1349295830223,1 45374U 20019Q   25300.67017072  .00002315  00000+0  17418-3 0  9999,2 45374  53.0540  43.7640 0001381  97.2185 262.8961 15.06410772309684
STARLINK-1302,45375,53.0557,0.0001228,15.06407465,546.3382488895495,548.0391088762826,1 45375U 20019R   25300.55222757  .00000780  00000+0  71235-4 0  9997,2 45375  53.0557  44.2960 0001228  86.9770 273.1359 15.06407465309668
STARLINK-1304,45376,53.0543,0.0001276,15.0642145,546.2621514702005,548.0294836452404,1 45376U 20019S   25300.70334285  .00005376  00000+0  37933-3 0  9997,2 45376  53.0543  43.6147 0001276  89.0387 271.0748 15.06421450309686
STARLINK-1305,45377,53.0535,0.0001195,15.31166101,471.51335175599615,473.15061384288583,1 45377U 20019T   25300.70658426  .00015815  00000+0  52896-3 0  9998,2 45377  53.0535  41.9626 0001195  81.1392 278.9743 15.31166101309712
STARLINK-1319,45379,53.0546,0.000131,15.12868109,526.5537649301286,528.3630309243863,1 45379U 20019V   25300.83334491  .01074665  00000+0  55835-1 0  9990,2 45379  53.0546  42.9658 0001310  79.5032 202.6774 15.12868109  5776
STARLINK-1266,45383,53.0546,0.0001355,15.06415766,546.2248596582021,548.1016160226573,1 45383U 20019Z   25300.72363080  .00006436  00000+0  45034-3 0  9991,2 45383  53.0546  23.5287 0001355  84.1108 276.0036 15.06415766309963
STARLINK-1267,45384,53.0551,0.0001639,15.0639133,546.103061383149,548.3731993508836,1 45384U 20019AA  25300.64261568 -.00002824  00000+0 -17080-3 0  9990,2 45384  53.0551  24.5480 0001639  94.8750 265.2427 15.06391330309944
STARLINK-1272,45386,53.0539,0.0001256,15.32969122,466.09967474926725,467.81916296968484,1 45386U 20019AC  25300.83334491 -.00003838  00000+0 -10743-3 0  9994,2 45386  53.0539  21.5897 0001256  54.4469 244.9308 15.32969122  5725
STARLINK-1274,45387,53.0377,0.0003597,15.28631874,477.4343767895589,482.3680494800883,1 45387U 20019AD  25300.60130103  .00037926  00000+0  13492-2 0  9990,2 45387  53.0377   9.9489 0003597 227.2809 132.7886 15.28631874310146
STARLINK-1280,45388,53.0636,0.0001291,15.38383091,450.008577440959,451.77183226525267,1 45388U 20019AE  25300.83334491  .00009066  00000+0  24597-3 0  9995,2 45388  53.0636  41.2319 0001291  52.7885 120.8052 15.38383091  5825
STARLINK-1283,45389,53.0559,0.0002397,15.29678489,475.12952779646275,478.4157714824996,1 45389U 20019AF  25300.47994935  .00044154  00000+0  15181-2 0  9996,2 45389  53.0559  21.7404 0002397  22.5185 337.5919 15.29678489309974
STARLINK-1284,45390,53.0555,0.0001352,15.06412688,546.236369451065,548.1089731861885,1 45390U 20019AG  25300.66096545  .00011094  00000+0  76226-3 0  9994,2 45390  53.0555  23.8099 0001352  99.2027 260.9115 15.06412688309958
STARLINK-1292,45394,53.0452,0.0008105,15.91955483,291.40108538274853,302.2211763028454,1 45394U 20019AL  25300.83334491  .00311507  47697-4  92569-3 0  9990,2 45394  53.0452 335.4640 0008105   5.4242  62.5379 15.91955483  5997
STARLINK-1297,45395,53.0546,0.0001602,15.06410036,546.07136330306,548.2902351259299,1 45395U 20019AM  25300.49878889  .00013627  00000+0  93172-3 0  9992,2 45395  53.0546  24.5365 0001602  90.9421 269.1751 15.06410036309111
STARLINK-1307,45397,53.0552,0.0001393,15.06391162,546.2739404404201,548.203350095192,1 45397U 20019AP  25300.49143176  .00010718  00000+0  73749-3 0  9994,2 45397  53.0552  24.5682 0001393  85.5149 274.5999 15.06391162309758
STARLINK-1312,45398,53.0431,0.0005477,15.95927367,282.08182455345013,289.38142624571265,1 45398U 20019AQ  25300.83334491  .00457738  96347-4  10998-2 0  9992,2 45398  53.0431 334.7769 0005477   5.4304 332.2029 15.95927367  6028
STARLINK-1255,45399,53.0486,0.0001236,15.29856301,475.39428362257604,477.0886859840193,1 45399U 20019AR  25300.83334491 -.00011471  00000+0 -37980-3 0  9992,2 45399  53.0486  11.1874 0001236  43.0919  57.0094 15.29856301  5727
STARLINK-1259,45403,53.0349,0.0002361,16.33781456,180.84819665622126,183.94608087654706,1 45403U 20019AV  25300.52887316  .05976701  12157-4  87872-3 0  9998,2 45403  53.0349 313.9840 0002361 181.7856 178.3179 16.33781456310721
STARLINK-1260,45404,53.0566,0.0001398,15.06412063,546.2064282675456,548.142745387222,1 45404U 20019AW  25300.62502334 -.00000105  00000+0  11860-4 0  9990,2 45404  53.0566  13.9683 0001398  87.2554 272.8595 15.06412063309802
STARLINK-1263,45405,53.0551,0.0001373,15.06414623,546.2158967082896,548.1175851155449,1 45405U 20019AX  25300.61029302  .00015208  00000+0  10373-2 0  9994,2 45405  53.0551  14.0369 0001373  78.3676 281.7467 15.06414623309800
STARLINK-1265,45406,53.0562,0.0001729,15.0646229,545.8232948794266,548.2180143964006,1 45406U 20019AY  25300.48497427  .00053871  00000+0  36019-2 0  9990,2 45406  53.0562  14.5998 0001729  87.7805 272.3382 15.06462290309781
STARLINK-1278,45408,53.0538,7.83e-05,15.323937,468.13678654021714,469.2089969692661,1 45408U 20019BA  25300.83334491  .00075186  00000+0  23585-2 0  9999,2 45408  53.0538  41.5184 0000783  32.3869 333.4364 15.32393700  5722
STARLINK-1296,45412,53.055,0.0001326,15.06406455,546.273475768131,548.1100729590926,1 45412U 20019BE  25300.62134942  .00012376  00000+0  84813-3 0  9994,2 45412  53.0550  13.9848 0001326  97.5017 262.6122 15.06406455309807
STARLINK-1298,45413,53.0481,0.0007905,15.51592718,406.70763562589764,417.44296126974314,1 45413U 20019BF  25300.83334491  .00077769  00000+0  12828-2 0  9992,2 45413  53.0481 350.3509 0007905 294.1657  32.0330 15.51592718  5831
STARLINK-1309,45414,53.0554,0.0001305,15.06414545,546.263227797439,548.0707321362115,1 45414U 20019BG  25300.63608951  .00012456  00000+0  85330-3 0  9997,2 45414  53.0554  13.9208 0001305  80.5034 279.6102 15.06414545309794
STARLINK-1316,45415,53.0554,0.000138,15.06405828,546.2380003792005,548.1493916513009,1 45415U 20019BH  25300.59554429  .00004395  00000+0  31371-3 0  9992,2 45415  53.0554  14.1035 0001380  87.0574 273.0573 15.06405828309828
STARLINK-1318,45416,53.0524,0.0004698,15.59799441,385.05818964833816,391.4158746889634,1 45416U 20019BJ  25300.39588735  .00047305  00000+0  58173-3 0  9995,2 45416  53.0524 344.2138 0004698  23.1457 336.9766 15.59799441310216
STARLINK-1286,45417,53.0535,0.000119,15.27638134,482.05856701911307,483.6914878816451,1 45417U 20019BK  25300.83334491  .01377584  00000+0  46312-1 0  9999,2 45417  53.0535  41.9918 0001190  83.7946  97.8121 15.27638134  5782
STARLINK-1308,45419,53.0543,0.0001268,15.06413838,546.291017966565,548.0472756053905,1 45419U 20019BM  25300.69597117  .00000648  00000+0  62366-4 0  9994,2 45419  53.0543  43.6486 0001268 105.2086 254.9043 15.06413838309429
STARLINK-1329,45531,53.0554,0.0001415,15.06391664,546.2571662593928,548.2170471315876,1 45531U 20025A   25300.39926839  .00007611  00000+0  52944-3 0  9997,2 45531  53.0554 344.9833 0001415  83.5870 276.5280 15.06391664305007
STARLINK-1338,45532,53.0555,0.0001445,15.06411816,546.1746362031254,548.1760514704938,1 45532U 20025B   25300.54301833  .00003235  00000+0  23588-3 0  9996,2 45532  53.0555 344.3360 0001445  90.1597 269.9558 15.06411816305029
STARLINK-1350,45535,53.0746,0.0001495,15.3212149,468.4601242020244,470.50756283423743,1 45535U 20025E   25300.24516155  .00011272  00000+0  36958-3 0  9996,2 45535  53.0746 298.0131 0001495  55.2107 304.9034 15.32121490305674
STARLINK-1362,45538,53.0545,0.0001249,15.06400737,546.3443233875832,548.0742748931098,1 45538U 20025H   25300.50887671  .00008981  00000+0  62105-3 0  9998,2 45538  53.0545 344.2084 0001249  87.6007 272.5125 15.06400737305025
STARLINK-1368,45540,53.0553,0.0001439,15.0641779,546.1604848754978,548.1535844986811,1 45540U 20025K   25300.51353233  .00005874  00000+0  41269-3 0  9990,2 45540  53.0553 344.4706 0001439  84.5224 275.5929 15.06417790305019
STARLINK-1371,45542,53.0554,0.0001296,15.06408143,546.2890789898283,548.0841228671889,1 45542U 20025M   25300.55038876  .00001414  00000+0  11378-3 0  9993,2 45542  53.0554 344.3040 0001296  89.0610 271.0528 15.06408143305021
STARLINK-1372,45543,53.0564,0.0001499,15.064065,546.1535296834791,548.2297432086852,1 45543U 20025N   25300.52090176  .00001806  00000+0  14010-3 0  9993,2 45543  53.0564 344.4380 0001499  86.1746 273.9415 15.06406500304114
STARLINK-1373,45544,53.0554,0.0001617,15.06397722,546.0987096982153,548.3383696797518,1 45544U 20025P   25300.53933545  .00004884  00000+0  34659-3 0  9991,2 45544  53.0554 344.3538 0001617  95.3871 264.7302 15.06397722305020
STARLINK-1294,45551,53.0497,0.0008197,15.58686289,385.90912920760275,397.0072035233434,1 45551U 20025W   25300.20040624  .00065381  00000+0  83347-3 0  9997,2 45551  53.0497 280.6211 0008197  40.4517 319.7103 15.58686289305893
STARLINK-1325,45554,53.0557,0.000165,15.58767938,390.1048237125433,392.33871210595316,1 45554U 20025Z   25300.83334491  .00347758  00000+0  42445-2 0  9991,2 45554  53.0557 270.5037 0001650 119.4268   2.1604 15.58767938  5947
STARLINK-1327,45555,53.055,0.0001508,15.063957,546.1803923003963,548.269081400229,1 45555U 20025AA  25300.51168816 -.00000390  00000+0 -72826-5 0  9992,2 45555  53.0550 324.4766 0001508  85.8244 274.2918 15.06395700305299
STARLINK-1356,45564,53.0568,0.0001517,15.06403236,546.151066210401,548.2522139538014,1 45564U 20025AK  25300.38268123  .00001407  00000+0  11334-3 0  9992,2 45564  53.0568 325.0570 0001517  96.3666 263.7496 15.06403236305279
STARLINK-1357,45565,53.0631,0.0006669,15.31367696,467.16257847618635,476.29893208818066,1 45565U 20025AL  25300.34704314  .00074027  00000+0  23969-2 0  9990,2 45565  53.0631 311.0025 0006669 329.5407  30.5205 15.31367696305475
STARLINK-1361,45567,53.0542,0.0001488,15.06407113,546.1592690819716,548.2202463250642,1 45567U 20025AN  25300.33476427  .00004496  00000+0  32045-3 0  9991,2 45567  53.0542 325.2705 0001488  85.6497 274.4661 15.06407113305277
